[{"OBJECT_NAME":"STARLINK-2061","OBJECT_ID":"2021-036AN","EPOCH":"2026-03-09T10:19:15.870720","MEAN_MOTION":15.30022568,"ECCENTRICITY":0.0001503,"INCLINATION":53.1566,"RA_OF_ASC_NODE":89.6098,"ARG_OF_PERICENTER":91.5075,"MEAN_ANOMALY":268.6098,"EPHEMERIS_TYPE":0,"CLASSIFICATION_TYPE":"U","NORAD_CAT_ID":48312,"ELEMENT_SET_NO":999,"REV_AT_EPOCH":26818,"BSTAR":0.0029335749,"MEAN_MOTION_DOT":0.00087068,"MEAN_MOTION_DDOT":0},{"OBJECT_NAME":"ION SCV-004","OBJECT_ID":"2022-002K","EPOCH":"2026-03-09T16:32:03.244416","MEAN_MOTION":15.29369331,"ECCENTRICITY":0.00072157,"INCLINATION":97.2961,"RA_OF_ASC_NODE":128.2294,"ARG_OF_PERICENTER":1.6783,"MEAN_ANOMALY":358.448,"EPHEMERIS_TYPE":0,"CLASSIFICATION_TYPE":"U","NORAD_CAT_ID":50993,"ELEMENT_SET_NO":999,"REV_AT_EPOCH":23008,"BSTAR":0.00023198467,"MEAN_MOTION_DOT":6.538e-5,"MEAN_MOTION_DDOT":0}]
