STARLINK-2061           
1 48312U 21036AN  26068.43004480  .00087068  00000+0  29336-2 0  9998
2 48312  53.1566  89.6098 0001503  91.5075 268.6098 15.30022568268188
ION SCV-004             
1 50993U 22002K   26068.68892644  .00006538  00000+0  23198-3 0  9998
2 50993  97.2961 128.2294 0007216   1.6783 358.4480 15.29369331230088
